H1 CPF  1  DGF 2022 03 06 11  5651 larets     NONE      
H2   304206 5557    27944 2022 03 06 00 00 00 2022 03 13 00 00 00    30 1 1  0 0 0
H5  0.0650
H9
10 0 59645  39600.000000  0       3205927.821       2069747.718      -5940108.210
10 0 59645  39630.000000  0       3087136.602       1912873.932      -6054554.000
10 0 59645  39660.000000  0       2964535.242       1754594.587      -6162834.088
10 0 59645  39690.000000  0       2838242.491       1595086.436      -6264839.407
10 0 59645  39720.000000  0       2708381.538       1434526.872      -6360467.283
10 0 59645  39750.000000  0       2575079.891       1273093.734      -6449621.534
10 0 59645  39780.000000  0       2438469.243       1110965.107      -6532212.553
10 0 59645  39810.000000  0       2298685.346        948319.129      -6608157.393
10 0 59645  39840.000000  0       2155867.871        785333.796      -6677379.841
10 0 59645  39870.000000  0       2010160.271        622186.771      -6739810.487
10 0 59645  39900.000000  0       1861709.640        459055.192      -6795386.793
10 0 59645  39930.000000  0       1710666.557        296115.483      -6844053.152
10 0 59645  39960.000000  0       1557184.937        133543.158      -6885760.940
10 0 59645  39990.000000  0       1401421.863        -28487.364      -6920468.559
10 0 59645  40020.000000  0       1243537.430       -189802.945      -6948141.469
10 0 59645  40050.000000  0       1083694.577       -350231.910      -6968752.216
10 0 59645  40080.000000  0        922058.921       -509604.230      -6982280.455
10 0 59645  40110.000000  0        758798.591       -667751.693      -6988712.962
10 0 59645  40140.000000  0        594084.048       -824508.083      -6988043.649
10 0 59645  40170.000000  0        428087.919       -979709.346      -6980273.564
10 0 59645  40200.000000  0        260984.811      -1133193.765      -6965410.888
10 0 59645  40230.000000  0         92951.134      -1284802.117      -6943470.930
10 0 59645  40260.000000  0        -75835.081      -1434377.842      -6914476.110
10 0 59645  40290.000000  0       -245194.370      -1581767.196      -6878455.943
10 0 59645  40320.000000  0       -414946.029      -1726819.413      -6835447.008
10 0 59645  40350.000000  0       -584908.299      -1869386.860      -6785492.918
10 0 59645  40380.000000  0       -754898.565      -2009325.182      -6728644.271
10 0 59645  40410.000000  0       -924733.544      -2146493.452      -6664958.608
10 0 59645  40440.000000  0      -1094229.483      -2280754.311      -6594500.350
10 0 59645  40470.000000  0      -1263202.358      -2411974.103      -6517340.743
10 0 59645  40500.000000  0      -1431468.062      -2540023.008      -6433557.782
10 0 59645  40530.000000  0      -1598842.611      -2664775.170      -6343236.148
10 0 59645  40560.000000  0      -1765142.337      -2786108.819      -6246467.124
10 0 59645  40590.000000  0      -1930184.093      -2903906.394      -6143348.507
10 0 59645  40620.000000  0      -2093785.447      -3018054.654      -6033984.522
10 0 59645  40650.000000  0      -2255764.887      -3128444.793      -5918485.725
10 0 59645  40680.000000  0      -2415942.021      -3234972.546      -5796968.894
10 0 59645  40710.000000  0      -2574137.781      -3337538.287      -5669556.927
10 0 59645  40740.000000  0      -2730174.623      -3436047.134      -5536378.717
10 0 59645  40770.000000  0      -2883876.730      -3530409.034      -5397569.031
10 0 59645  40800.000000  0      -3035070.211      -3620538.850      -5253268.376
10 0 59645  40830.000000  0      -3183583.301      -3706356.442      -5103622.863
10 0 59645  40860.000000  0      -3329246.553      -3787786.735      -4948784.068
10 0 59645  40890.000000  0      -3471893.036      -3864759.797      -4788908.877
10 0 59645  40920.000000  0      -3611358.531      -3937210.892      -4624159.338
10 0 59645  40950.000000  0      -3747481.714      -4005080.544      -4454702.502
10 0 59645  40980.000000  0      -3880104.356      -4068314.584      -4280710.257
10 0 59645  41010.000000  0      -4009071.501      -4126864.197      -4102359.156
10 0 59645  41040.000000  0      -4134231.656      -4180685.964      -3919830.249
10 0 59645  41070.000000  0      -4255436.972      -4229741.890      -3733308.894
10 0 59645  41100.000000  0      -4372543.422      -4273999.436      -3542984.576
10 0 59645  41130.000000  0      -4485410.973      -4313431.539      -3349050.713
10 0 59645  41160.000000  0      -4593903.763      -4348016.620      -3151704.460
10 0 59645  41190.000000  0      -4697890.260      -4377738.601      -2951146.513
10 0 59645  41220.000000  0      -4797243.429      -4402586.901      -2747580.900
10 0 59645  41250.000000  0      -4891840.889      -4422556.427      -2541214.776
10 0 59645  41280.000000  0      -4981565.066      -4437647.573      -2332258.210
10 0 59645  41310.000000  0      -5066303.344      -4447866.190      -2120923.970
10 0 59645  41340.000000  0      -5145948.203      -4453223.570      -1907427.305
10 0 59645  41370.000000  0      -5220397.360      -4453736.414      -1691985.721
10 0 59645  41400.000000  0      -5289553.901      -4449426.794      -1474818.756
10 0 59645  41430.000000  0      -5353326.406      -4440322.107      -1256147.754
10 0 59645  41460.000000  0      -5411629.067      -4426455.031      -1036195.638
10 0 59645  41490.000000  0      -5464381.810      -4407863.463       -815186.673
10 0 59645  41520.000000  0      -5511510.395      -4384590.462       -593346.238
10 0 59645  41550.000000  0      -5552946.522      -4356684.178       -370900.586
10 0 59645  41580.000000  0      -5588627.923      -4324197.783       -148076.610
10 0 59645  41610.000000  0      -5618498.453      -4287189.386         74898.395
10 0 59645  41640.000000  0      -5642508.165      -4245721.949        297796.975
10 0 59645  41670.000000  0      -5660613.385      -4199863.197        520391.749
10 0 59645  41700.000000  0      -5672776.780      -4149685.519        742455.654
10 0 59645  41730.000000  0      -5678967.411      -4095265.863        963762.184
10 0 59645  41760.000000  0      -5679160.783      -4036685.630       1184085.620
10 0 59645  41790.000000  0      -5673338.890      -3974030.558       1403201.274
10 0 59645  41820.000000  0      -5661490.247      -3907390.604       1620885.717
10 0 59645  41850.000000  0      -5643609.920      -3836859.823       1836917.014
10 0 59645  41880.000000  0      -5619699.545      -3762536.238       2051074.955
10 0 59645  41910.000000  0      -5589767.339      -3684521.707       2263141.282
10 0 59645  41940.000000  0      -5553828.102      -3602921.793       2472899.917
10 0 59645  41970.000000  0      -5511903.220      -3517845.619       2680137.180
10 0 59645  42000.000000  0      -5464020.649      -3429405.733       2884642.014
10 0 59645  42030.000000  0      -5410214.900      -3337717.953       3086206.202
10 0 59645  42060.000000  0      -5350527.012      -3242901.223       3284624.580
10 0 59645  42090.000000  0      -5285004.522      -3145077.459       3479695.249
10 0 59645  42120.000000  0      -5213701.416      -3044371.391       3671219.784
10 0 59645  42150.000000  0      -5136678.090      -2940910.403       3859003.431
10 0 59645  42180.000000  0      -5054001.282      -2834824.373       4042855.310
10 0 59645  42210.000000  0      -4965744.018      -2726245.510       4222588.602
10 0 59645  42240.000000  0      -4871985.533      -2615308.189       4398020.738
10 0 59645  42270.000000  0      -4772811.203      -2502148.783       4568973.577
10 0 59645  42300.000000  0      -4668312.454      -2386905.499       4735273.585
10 0 59645  42330.000000  0      -4558586.679      -2269718.211       4896752.005
10 0 59645  42360.000000  0      -4443737.141      -2150728.287       5053245.025
10 0 59645  42390.000000  0      -4323872.870      -2030078.423       5204593.940
10 0 59645  42420.000000  0      -4199108.555      -1907912.473       5350645.304
10 0 59645  42450.000000  0      -4069564.436      -1784375.277       5491251.086
10 0 59645  42480.000000  0      -3935366.177      -1659612.494       5626268.816
10 0 59645  42510.000000  0      -3796644.744      -1533770.428       5755561.723
10 0 59645  42540.000000  0      -3653536.271      -1406995.852       5878998.873
10 0 59645  42570.000000  0      -3506181.922      -1279435.846       5996455.292
10 0 59645  42600.000000  0      -3354727.745      -1151237.618       6107812.090
10 0 59645  42630.000000  0      -3199324.528      -1022548.343       6212956.574
10 0 59645  42660.000000  0      -3040127.640       -893514.986       6311782.357
10 0 59645  42690.000000  0      -2877296.871       -764284.139       6404189.459
10 0 59645  42720.000000  0      -2710996.272       -635001.855       6490084.395
10 0 59645  42750.000000  0      -2541393.987       -505813.483       6569380.271
10 0 59645  42780.000000  0      -2368662.076       -376863.511       6641996.855
10 0 59645  42810.000000  0      -2192976.347       -248295.407       6707860.659
10 0 59645  42840.000000  0      -2014516.174       -120251.462       6766905.003
10 0 59645  42870.000000  0      -1833464.315          7127.362       6819070.082
10 0 59645  42900.000000  0      -1650006.729        133701.588       6864303.021
10 0 59645  42930.000000  0      -1464332.382        259333.374       6902557.928
10 0 59645  42960.000000  0      -1276633.061        383886.660       6933795.937
10 0 59645  42990.000000  0      -1087103.168        507227.314       6957985.241
10 0 59645  43020.000000  0       -895939.532        629223.278       6975101.132
10 0 59645  43050.000000  0       -703341.196        749744.702       6985126.016
10 0 59645  43080.000000  0       -509509.220        868664.089       6988049.435
10 0 59645  43110.000000  0       -314646.472        985856.418       6983868.079
10 0 59645  43140.000000  0       -118957.418       1101199.285       6972585.787
10 0 59645  43170.000000  0         77352.090       1214573.023       6954213.551
99
